ONEWEB-0056             
1 45159U 20008AE  24306.83568695 -.00000581  00000+0 -17003-2 0  9997
2 45159  87.8911 154.2062 0001458  89.6800 270.4494 13.10371812230607
ONEWEB-0057             
1 45160U 20008AF  24306.84232191 -.00000637  00000+0 -18616-2 0  9992
2 45160  87.8914 154.2104 0001552  83.9895 276.1409 13.10372117230771
ONEWEB-0058             
1 45161U 20008AG  24306.82918928 -.00000291  00000+0 -86861-3 0  9994
2 45161  87.8905 154.2404 0001595  80.5469 279.5838 13.10368898230844
ONEWEB-0059             
1 45162U 20008AH  24306.82573274 -.00000136  00000+0 -42695-3 0  9991
2 45162  87.8911 154.2270 0001558  77.3331 282.7971 13.10369556230749
ONEWEB-0062             
1 45163U 20008AJ  24306.85228931 -.00000363  00000+0 -10753-2 0  9993
2 45163  87.8918 154.2057 0001434  67.2897 292.8381 13.10375661230615
ONEWEB-0065             
1 45164U 20008AK  24306.83071025 -.00000412  00000+0 -12166-2 0  9997
2 45164  87.8914 154.2218 0001462  89.6338 270.4957 13.10370275230303
ONEWEB-0066             
1 45424U 20020A   24306.93116156  .00000138  00000+0  35396-3 0  9990
2 45424  87.8889 139.0554 0001949  89.0008 271.1343 13.11412380225053
ONEWEB-0067             
1 45425U 20020B   24306.81601007  .00000011  00000+0 -47648-5 0  9998
2 45425  87.8882 139.0232 0001705  90.9694 269.1629 13.11417651225096
